GLOBALSTAR M023         
1 25621U 99004A   25071.23798130  .00000055  00000+0  88349-3 0  9990
2 25621  52.0136 348.6558 0009410 274.9686 246.4694 12.62500056203579
GLOBALSTAR M040         
1 25622U 99004B   25071.25479891 -.00000005  00000+0  55464-3 0  9991
2 25622  51.9948 352.6137 0000802 137.9514  24.6969 12.62004383203316
GLOBALSTAR M036         
1 25623U 99004C   25070.94250125 -.00000081  00000+0  19915-4 0  9990
2 25623  51.9954 136.6368 0011187 224.7020 306.3161 11.86590542167433
GLOBALSTAR M022         
1 25649U 99012A   25071.09595111 -.00000067  00000+0  23389-3 0  9994
2 25649  52.0030 194.8395 0001962 356.2291 175.2304 12.02497119164776
GLOBALSTAR M046         
1 25651U 99012C   25071.22389819 -.00000210  00000+0 -13351-2 0  9996
2 25651  52.0043 148.1654 0002420  73.1818 303.9533 12.09406597172289
GLOBALSTAR M037         
1 25652U 99012D   25070.89783264 -.00000060  00000+0  24639-3 0  9995
2 25652  51.9990 120.3450 0001576 338.6565 193.6977 12.62438576198986
